start=new Date('2023-01-14T00:00:00.000Z').valueOf();
sats=[{"INCLINATION":"53.2162","NORAD_CAT_ID":"52646","PERIOD":"95.438","TLE_LINE2":"2 52646  53.2162  25.9614 0002525  35.8464 324.2697 15.08828786 37382","OBJECT_ID":"2022-052BA","MEAN_MOTION_DOT":"0.00000669","DECAY_DATE":null,"FILE":"3743722","SITE":"AFETR","OBJECT_TYPE":"PAYLOAD","EPOCH":"2023-01-13T17:40:25.119840","MEAN_MOTION":"15.08828786","OBJECT_NAME":"STARLINK-3832","REV_AT_EPOCH":"3738","CLASSIFICATION_TYPE":"U","TLE_LINE1":"1 52646U 22052BA  23013.73640185  .00000669  00000-0  60155-4 0  9999","BSTAR":"0.00006015500000","GP_ID":"222973725","APOAPSIS":"541.526","LAUNCH_DATE":"2022-05-14","COUNTRY_CODE":"US","RCS_SIZE":"LARGE","CENTER_NAME":"EARTH","TIME_SYSTEM":"UTC","ECCENTRICITY":"0.00025250","MEAN_ELEMENT_THEORY":"SGP4","PERIAPSIS":"538.033","REF_FRAME":"TEME","RA_OF_ASC_NODE":"25.9614","MEAN_ANOMALY":"324.2697","ARG_OF_PERICENTER":"35.8464","ELEMENT_SET_NO":"999","EPHEMERIS_TYPE":"0","SEMIMAJOR_AXIS":"6917.915","MEAN_MOTION_DDOT":"0.0000000000000"},{"INCLINATION":"53.2142","NORAD_CAT_ID":"52647","PERIOD":"95.437","TLE_LINE2":"2 52647  53.2142  26.0452 0002798  23.1865 336.9253 15.08846983 37387","OBJECT_ID":"2022-052BB","MEAN_MOTION_DOT":"-0.00000877","DECAY_DATE":null,"FILE":"3743722","SITE":"AFETR","OBJECT_TYPE":"PAYLOAD","EPOCH":"2023-01-13T17:15:15.375744","MEAN_MOTION":"15.08846983","REV_AT_EPOCH":"3738","OBJECT_NAME":"STARLINK-3846","CLASSIFICATION_TYPE":"U","TLE_LINE1":"1 52647U 22052BB  23013.71892796 -.00000877  00000-0 -36981-4 0  9998","BSTAR":"-0.00003698100000","GP_ID":"222974973","APOAPSIS":"541.660","COUNTRY_CODE":"US","LAUNCH_DATE":"2022-05-14","RCS_SIZE":"LARGE","CENTER_NAME":"EARTH","TIME_SYSTEM":"UTC","ECCENTRICITY":"0.00027980","MEAN_ELEMENT_THEORY":"SGP4","PERIAPSIS":"537.788","REF_FRAME":"TEME","RA_OF_ASC_NODE":"26.0452","ARG_OF_PERICENTER":"23.1865","MEAN_ANOMALY":"336.9253","ELEMENT_SET_NO":"999","EPHEMERIS_TYPE":"0","MEAN_MOTION_DDOT":"0.0000000000000","SEMIMAJOR_AXIS":"6917.859"},{"CENTER_NAME":"EARTH","RCS_SIZE":"LARGE","ECCENTRICITY":"0.00022920","TIME_SYSTEM":"UTC","MEAN_ELEMENT_THEORY":"SGP4","PERIAPSIS":"538.164","REF_FRAME":"TEME","EPHEMERIS_TYPE":"0","MEAN_MOTION_DDOT":"0.0000000000000","SEMIMAJOR_AXIS":"6917.885","ELEMENT_SET_NO":"999","MEAN_ANOMALY":"320.7828","ARG_OF_PERICENTER":"39.3330","RA_OF_ASC_NODE":"25.9776","TLE_LINE2":"2 52648  53.2147  25.9776 0002292  39.3330 320.7828 15.08838556 37370","PERIOD":"95.438","MEAN_MOTION_DOT":"0.00001660","OBJECT_ID":"2022-052BC","NORAD_CAT_ID":"52648","INCLINATION":"53.2147","EPOCH":"2023-01-13T17:35:07.237824","MEAN_MOTION":"15.08838556","OBJECT_TYPE":"PAYLOAD","SITE":"AFETR","FILE":"3743722","DECAY_DATE":null,"BSTAR":"0.00012240000000","GP_ID":"222974720","TLE_LINE1":"1 52648U 22052BC  23013.73272266  .00001660  00000-0  12240-3 0  9995","CLASSIFICATION_TYPE":"U","REV_AT_EPOCH":"3737","OBJECT_NAME":"STARLINK-3854","LAUNCH_DATE":"2022-05-14","COUNTRY_CODE":"US","APOAPSIS":"541.335"},{"MEAN_ELEMENT_THEORY":"SGP4","PERIAPSIS":"537.945","REF_FRAME":"TEME","ARG_OF_PERICENTER":"34.4390","MEAN_ANOMALY":"325.6771","RA_OF_ASC_NODE":"26.0289","EPHEMERIS_TYPE":"0","SEMIMAJOR_AXIS":"6917.885","MEAN_MOTION_DDOT":"0.0000000000000","ELEMENT_SET_NO":"999","RCS_SIZE":"LARGE","CENTER_NAME":"EARTH","TIME_SYSTEM":"UTC","ECCENTRICITY":"0.00026090","TLE_LINE1":"1 52649U 22052BD  23013.72264133  .00009099  00000-0  58906-3 0  9992","REV_AT_EPOCH":"3738","OBJECT_NAME":"STARLINK-3868","CLASSIFICATION_TYPE":"U","BSTAR":"0.00058906000000","GP_ID":"222973975","APOAPSIS":"541.554","LAUNCH_DATE":"2022-05-14","COUNTRY_CODE":"US","INCLINATION":"53.2144","TLE_LINE2":"2 52649  53.2144  26.0289 0002609  34.4390 325.6771 15.08838647 37386","PERIOD":"95.438","MEAN_MOTION_DOT":"0.00009099","OBJECT_ID":"2022-052BD","NORAD_CAT_ID":"52649","SITE":"AFETR","FILE":"3743722","DECAY_DATE":null,"EPOCH":"2023-01-13T17:20:36.210912","MEAN_MOTION":"15.08838647","OBJECT_TYPE":"PAYLOAD"},{"PERIAPSIS":"538.081","REF_FRAME":"TEME","MEAN_ELEMENT_THEORY":"SGP4","SEMIMAJOR_AXIS":"6917.893","MEAN_MOTION_DDOT":"0.0000000000000","EPHEMERIS_TYPE":"0","ELEMENT_SET_NO":"999","MEAN_ANOMALY":"320.1808","ARG_OF_PERICENTER":"39.9363","RA_OF_ASC_NODE":"15.9808","CENTER_NAME":"EARTH","RCS_SIZE":"LARGE","ECCENTRICITY":"0.00024250","TIME_SYSTEM":"UTC","GP_ID":"222974225","BSTAR":"0.00004651100000","TLE_LINE1":"1 52650U 22052BE  23013.73091247  .00000452  00000-0  46511-4 0  9993","OBJECT_NAME":"STARLINK-3891","CLASSIFICATION_TYPE":"U","REV_AT_EPOCH":"3752","COUNTRY_CODE":"US","LAUNCH_DATE":"2022-05-14","APOAPSIS":"541.436","PERIOD":"95.438","TLE_LINE2":"2 52650  53.2194  15.9808 0002425  39.9363 320.1808 15.08835762 37525","MEAN_MOTION_DOT":"0.00000452","OBJECT_ID":"2022-052BE","NORAD_CAT_ID":"52650","INCLINATION":"53.2194","MEAN_MOTION":"15.08835762","EPOCH":"2023-01-13T17:32:30.837408","OBJECT_TYPE":"PAYLOAD","SITE":"AFETR","DECAY_DATE":null,"FILE":"3743722"},{"TIME_SYSTEM":"UTC","ECCENTRICITY":"0.00017770","RCS_SIZE":"LARGE","CENTER_NAME":"EARTH","MEAN_ANOMALY":"313.2241","ARG_OF_PERICENTER":"46.8899","RA_OF_ASC_NODE":"282.2906","SEMIMAJOR_AXIS":"6917.919","MEAN_MOTION_DDOT":"0.0000000000000","EPHEMERIS_TYPE":"0","ELEMENT_SET_NO":"999","REF_FRAME":"TEME","PERIAPSIS":"538.555","MEAN_ELEMENT_THEORY":"SGP4","SITE":"AFETR","DECAY_DATE":null,"FILE":"3743490","MEAN_MOTION":"15.08827360","EPOCH":"2023-01-13T10:31:50.600640","OBJECT_TYPE":"PAYLOAD","INCLINATION":"53.2163","TLE_LINE2":"2 52656  53.2163 282.2906 0001777  46.8899 313.2241 15.08827360 37311","PERIOD":"95.438","MEAN_MOTION_DOT":"-0.00000405","OBJECT_ID":"2022-053A","NORAD_CAT_ID":"52656","APOAPSIS":"541.013","COUNTRY_CODE":"US","LAUNCH_DATE":"2022-05-18","TLE_LINE1":"1 52656U 22053A   23013.43878010 -.00000405  00000-0 -73234-5 0  9991","OBJECT_NAME":"STARLINK-4004","CLASSIFICATION_TYPE":"U","REV_AT_EPOCH":"3731","GP_ID":"222946524","BSTAR":"-0.00000732340000"},{"INCLINATION":"53.2166","TLE_LINE2":"2 52657  53.2166 280.4710 0002816  25.5587 334.5544 15.08810926 37672","PERIOD":"95.439","OBJECT_ID":"2022-053B","MEAN_MOTION_DOT":"-0.00007880","NORAD_CAT_ID":"52657","SITE":"AFETR","DECAY_DATE":null,"FILE":"3743722","EPOCH":"2023-01-13T20:14:44.629440","MEAN_MOTION":"15.08810926","OBJECT_TYPE":"PAYLOAD","TLE_LINE1":"1 52657U 22053B   23013.84357210 -.00007880  00000-0 -47784-3 0  9994","OBJECT_NAME":"STARLINK-4084","CLASSIFICATION_TYPE":"U","REV_AT_EPOCH":"3767","BSTAR":"-0.00047784000000","GP_ID":"222973476","APOAPSIS":"541.782","LAUNCH_DATE":"2022-05-18","COUNTRY_CODE":"US","RCS_SIZE":"LARGE","CENTER_NAME":"EARTH","TIME_SYSTEM":"UTC","ECCENTRICITY":"0.00028160","MEAN_ELEMENT_THEORY":"SGP4","PERIAPSIS":"537.886","REF_FRAME":"TEME","ARG_OF_PERICENTER":"25.5587","MEAN_ANOMALY":"334.5544","RA_OF_ASC_NODE":"280.4710","EPHEMERIS_TYPE":"0","SEMIMAJOR_AXIS":"6917.969","MEAN_MOTION_DDOT":"0.0000000000000","ELEMENT_SET_NO":"999"},{"ELEMENT_SET_NO":"999","SEMIMAJOR_AXIS":"6917.883","MEAN_MOTION_DDOT":"0.0000000000000","EPHEMERIS_TYPE":"0","RA_OF_ASC_NODE":"280.4861","ARG_OF_PERICENTER":"70.1296","MEAN_ANOMALY":"289.9890","REF_FRAME":"TEME","PERIAPSIS":"538.507","MEAN_ELEMENT_THEORY":"SGP4","ECCENTRICITY":"0.00017940","TIME_SYSTEM":"UTC","CENTER_NAME":"EARTH","RCS_SIZE":"LARGE","COUNTRY_CODE":"US","LAUNCH_DATE":"2022-05-18","APOAPSIS":"540.989","GP_ID":"222973726","BSTAR":"0.00014728000000","REV_AT_EPOCH":"3749","OBJECT_NAME":"STARLINK-4082","CLASSIFICATION_TYPE":"U","TLE_LINE1":"1 52658U 22053C   23013.83990374  .00002057  00000-0  14728-3 0  9999","OBJECT_TYPE":"PAYLOAD","MEAN_MOTION":"15.08839074","EPOCH":"2023-01-13T20:09:27.683136","FILE":"3743722","DECAY_DATE":null,"SITE":"AFETR","NORAD_CAT_ID":"52658","TLE_LINE2":"2 52658  53.2161 280.4861 0001794  70.1296 289.9890 15.08839074 37494","PERIOD":"95.438","OBJECT_ID":"2022-053C","MEAN_MOTION_DOT":"0.00002057","INCLINATION":"53.2161"},{"MEAN_ELEMENT_THEORY":"SGP4","REF_FRAME":"TEME","PERIAPSIS":"538.785","RA_OF_ASC_NODE":"280.4798","MEAN_ANOMALY":"277.4604","ARG_OF_PERICENTER":"82.6551","ELEMENT_SET_NO":"999","EPHEMERIS_TYPE":"0","MEAN_MOTION_DDOT":"0.0000000000000","SEMIMAJOR_AXIS":"6917.910","RCS_SIZE":"LARGE","CENTER_NAME":"EARTH","TIME_SYSTEM":"UTC","ECCENTRICITY":"0.00014310","OBJECT_NAME":"STARLINK-3960","CLASSIFICATION_TYPE":"U","REV_AT_EPOCH":"3748","TLE_LINE1":"1 52659U 22053D   23013.84086165 -.00004101  00000-0 -23981-3 0  9990","BSTAR":"-0.00023981000000","GP_ID":"222974974","APOAPSIS":"540.765","COUNTRY_CODE":"US","LAUNCH_DATE":"2022-05-18","INCLINATION":"53.2181","NORAD_CAT_ID":"52659","TLE_LINE2":"2 52659  53.2181 280.4798 0001431  82.6551 277.4604 15.08830346 37483","PERIOD":"95.438","MEAN_MOTION_DOT":"-0.00004101","OBJECT_ID":"2022-053D","FILE":"3743722","DECAY_DATE":null,"SITE":"AFETR","OBJECT_TYPE":"PAYLOAD","EPOCH":"2023-01-13T20:10:50.446560","MEAN_MOTION":"15.08830346"},{"PERIAPSIS":"538.541","REF_FRAME":"TEME","MEAN_ELEMENT_THEORY":"SGP4","MEAN_ANOMALY":"274.5221","ARG_OF_PERICENTER":"85.5970","RA_OF_ASC_NODE":"280.5174","SEMIMAJOR_AXIS":"6917.880","MEAN_MOTION_DDOT":"0.0000000000000","EPHEMERIS_TYPE":"0","ELEMENT_SET_NO":"999","RCS_SIZE":"LARGE","CENTER_NAME":"EARTH","TIME_SYSTEM":"UTC","ECCENTRICITY":"0.00017400","TLE_LINE1":"1 52660U 22053E   23013.83254391  .00000357  00000-0  40531-4 0  9997","CLASSIFICATION_TYPE":"U","OBJECT_NAME":"STARLINK-4081","REV_AT_EPOCH":"3737","GP_ID":"222974721","BSTAR":"0.00004053100000","APOAPSIS":"540.949","LAUNCH_DATE":"2022-05-18","COUNTRY_CODE":"US","INCLINATION":"53.2168","TLE_LINE2":"2 52660  53.2168 280.5174 0001740  85.5970 274.5221 15.08840099 37376","MEAN_MOTION_DOT":"0.00000357","PERIOD":"95.438","OBJECT_ID":"2022-053E","NORAD_CAT_ID":"52660","SITE":"AFETR","FILE":"3743722","DECAY_DATE":null,"MEAN_MOTION":"15.08840099","EPOCH":"2023-01-13T19:58:51.793824","OBJECT_TYPE":"PAYLOAD"}];
